{"type": "FeatureCollection", "features": [ {"type": "Feature", "properties": {"norad_id": 66910, "name": "1998-067XW", "group": "last-30-days", "lat": -0.45351731577400817, "lon": -87.62253982645512, "alt_km": 408.6602998752833, "timestamp": "2025-12-22T20:43:44.567044+00:00", "meta": {"OBJECT_NAME": "1998-067XW", "OBJECT_ID": "1998-067XW", "EPOCH": "2025-12-22T12:13:56.337312", "MEAN_MOTION": 15.52855241, "ECCENTRICITY": 0.00039884, "INCLINATION": 51.6304, "RA_OF_ASC_NODE": 93.7808, "ARG_OF_PERICENTER": 260.6768, "MEAN_ANOMALY": 99.3771, "EPHEMERIS_TYPE": 0, "CLASSIFICATION_TYPE": "U", "NORAD_CAT_ID": 66910, "ELEMENT_SET_NO": 999, "REV_AT_EPOCH": 313, "BSTAR": 0.0010313397, "MEAN_MOTION_DOT": 0.00065266, "MEAN_MOTION_DDOT": 0}, "tle": {"line1": "1 66910U 98067XW  25356.50967983  .00065266  00000+0  10313-2 0  9994", "line2": "2 66910  51.6304  93.7808 0003988 260.6768  99.3771 15.52855241  3132"}}, "geometry": {"type": "Point", "coordinates": [-87.62253982645512, -0.45351731577400817]}}, {"type": "Feature", "properties": {"norad_id": 66911, "name": "1998-067XX", "group": "last-30-days", "lat": -14.03967796520749, "lon": -76.59134007795943, "alt_km": 408.37494912348484, "timestamp": "2025-12-22T20:43:44.567056+00:00", "meta": {"OBJECT_NAME": "1998-067XX", "OBJECT_ID": "1998-067XX", "EPOCH": "2025-12-22T12:09:35.951904", "MEAN_MOTION": 15.53307333, "ECCENTRICITY": 0.00037259, "INCLINATION": 51.6305, "RA_OF_ASC_NODE": 93.7603, "ARG_OF_PERICENTER": 265.4438, "MEAN_ANOMALY": 94.6127, "EPHEMERIS_TYPE": 0, "CLASSIFICATION_TYPE": "U", "NORAD_CAT_ID": 66911, "ELEMENT_SET_NO": 999, "REV_AT_EPOCH": 312, "BSTAR": 0.0011547051, "MEAN_MOTION_DOT": 0.00074426, "MEAN_MOTION_DDOT": 0}, "tle": {"line1": "1 66911U 98067XX  25356.50666611  .00074426  00000+0  11547-2 0  9997", "line2": "2 66911  51.6305  93.7603 0003725 265.4438  94.6127 15.53307333  3120"}}, "geometry": {"type": "Point", "coordinates": [-76.59134007795943, -14.03967796520749]}}, {"type": "Feature", "properties": {"norad_id": 66912, "name": "1998-067XY", "group": "last-30-days", "lat": 32.549217122309436, "lon": -118.26495846755381, "alt_km": 408.52222783254456, "timestamp": "2025-12-22T20:43:44.567066+00:00", "meta": {"OBJECT_NAME": "1998-067XY", "OBJECT_ID": "1998-067XY", "EPOCH": "2025-12-22T13:57:42.061248", "MEAN_MOTION": 15.52056622, "ECCENTRICITY": 0.00039127, "INCLINATION": 51.6324, "RA_OF_ASC_NODE": 93.5129, "ARG_OF_PERICENTER": 278.0711, "MEAN_ANOMALY": 81.9835, "EPHEMERIS_TYPE": 0, "CLASSIFICATION_TYPE": "U", "NORAD_CAT_ID": 66912, "ELEMENT_SET_NO": 999, "REV_AT_EPOCH": 313, "BSTAR": 0.00086867978, "MEAN_MOTION_DOT": 0.0005325, "MEAN_MOTION_DDOT": 0}, "tle": {"line1": "1 66912U 98067XY  25356.58173682  .00053250  00000+0  86868-3 0  9998", "line2": "2 66912  51.6324  93.5129 0003912 278.0711  81.9835 15.52056622  3132"}}, "geometry": {"type": "Point", "coordinates": [-118.26495846755381, 32.549217122309436]}}, {"type": "Feature", "properties": {"norad_id": 66913, "name": "2025-284A", "group": "last-30-days", "lat": 61.88976490745178, "lon": -81.42706823437615, "alt_km": 541.1045093593684, "timestamp": "2025-12-22T20:43:44.567078+00:00", "meta": {"OBJECT_NAME": "2025-284A", "OBJECT_ID": "2025-284A", "EPOCH": "2025-12-22T12:15:21.138048", "MEAN_MOTION": 15.08882846, "ECCENTRICITY": 0.00135237, "INCLINATION": 80.4036, "RA_OF_ASC_NODE": 117.4787, "ARG_OF_PERICENTER": 261.7581, "MEAN_ANOMALY": 98.2108, "EPHEMERIS_TYPE": 0, "CLASSIFICATION_TYPE": "U", "NORAD_CAT_ID": 66913, "ELEMENT_SET_NO": 999, "REV_AT_EPOCH": 260, "BSTAR": 0.00052878458, "MEAN_MOTION_DOT": 8.368e-05, "MEAN_MOTION_DDOT": 0}, "tle": {"line1": "1 66913U 25284A   25356.51066132  .00008368  00000+0  52878-3 0  9998", "line2": "2 66913  80.4036 117.4787 0013523 261.7581  98.2108 15.08882846  2603"}}, "geometry": {"type": "Point", "coordinates": [-81.42706823437615, 61.88976490745178]}}, {"type": "Feature", "properties": {"norad_id": 66914, "name": "2025-284B", "group": "last-30-days", "lat": -47.67469437620547, "lon": 106.22755410078048, "alt_km": 516.1740010750646, "timestamp": "2025-12-22T20:43:44.567089+00:00", "meta": {"OBJECT_NAME": "2025-284B", "OBJECT_ID": "2025-284B", "EPOCH": "2025-12-16T06:51:11.417184", "MEAN_MOTION": 15.18985981, "ECCENTRICITY": 0.00081793, "INCLINATION": 80.4045, "RA_OF_ASC_NODE": 125.2713, "ARG_OF_PERICENTER": 234.9626, "MEAN_ANOMALY": 125.0834, "EPHEMERIS_TYPE": 0, "CLASSIFICATION_TYPE": "U", "NORAD_CAT_ID": 66914, "ELEMENT_SET_NO": 999, "REV_AT_EPOCH": 166, "BSTAR": 0.00038444995, "MEAN_MOTION_DOT": 8.068e-05, "MEAN_MOTION_DDOT": 0}, "tle": {"line1": "1 66914U 25284B   25350.28554881  .00008068  00000+0  38445-3 0  9991", "line2": "2 66914  80.4045 125.2713 0008179 234.9626 125.0834 15.18985981  1668"}}, "geometry": {"type": "Point", "coordinates": [106.22755410078048, -47.67469437620547]}}, {"type": "Feature", "properties": {"norad_id": 66915, "name": "HULIANWANG DIGUI-105", "group": "last-30-days", "lat": -49.31536786917964, "lon": -26.39804540646182, "alt_km": 882.0050001395421, "timestamp": "2025-12-22T20:43:44.567101+00:00", "meta": {"OBJECT_NAME": "HULIANWANG DIGUI-105", "OBJECT_ID": "2025-285A", "EPOCH": "2025-12-22T14:21:35.770752", "MEAN_MOTION": 14.03718784, "ECCENTRICITY": 0.00080767, "INCLINATION": 50.0052, "RA_OF_ASC_NODE": 77.1276, "ARG_OF_PERICENTER": 315.6426, "MEAN_ANOMALY": 44.383, "EPHEMERIS_TYPE": 0, "CLASSIFICATION_TYPE": "U", "NORAD_CAT_ID": 66915, "ELEMENT_SET_NO": 999, "REV_AT_EPOCH": 229, "BSTAR": 0.00011682964, "MEAN_MOTION_DOT": 3.3e-07, "MEAN_MOTION_DDOT": 0}, "tle": {"line1": "1 66915U 25285A   25356.59833068  .00000033  00000+0  11683-3 0  9999", "line2": "2 66915  50.0052  77.1276 0008076 315.6426  44.3830 14.03718784  2297"}}, "geometry": {"type": "Point", "coordinates": [-26.39804540646182, -49.31536786917964]}}, {"type": "Feature", "properties": {"norad_id": 66916, "name": "HULIANWANG DIGUI-106", "group": "last-30-days", "lat": -49.554262358211716, "lon": -3.958194769052061, "alt_km": 881.3082838617865, "timestamp": "2025-12-22T20:43:44.567111+00:00", "meta": {"OBJECT_NAME": "HULIANWANG DIGUI-106", "OBJECT_ID": "2025-285B", "EPOCH": "2025-12-22T14:17:26.994912", "MEAN_MOTION": 14.03703715, "ECCENTRICITY": 0.00068489, "INCLINATION": 50.0062, "RA_OF_ASC_NODE": 77.1142, "ARG_OF_PERICENTER": 308.9367, "MEAN_ANOMALY": 51.0926, "EPHEMERIS_TYPE": 0, "CLASSIFICATION_TYPE": "U", "NORAD_CAT_ID": 66916, "ELEMENT_SET_NO": 999, "REV_AT_EPOCH": 229, "BSTAR": 0.00012182465, "MEAN_MOTION_DOT": 4.1e-07, "MEAN_MOTION_DDOT": 0}, "tle": {"line1": "1 66916U 25285B   25356.59545133  .00000041  00000+0  12182-3 0  9997", "line2": "2 66916  50.0062  77.1142 0006848 308.9367  51.0926 14.03703715  2294"}}, "geometry": {"type": "Point", "coordinates": [-3.958194769052061, -49.554262358211716]}}, {"type": "Feature", "properties": {"norad_id": 66917, "name": "HULIANWANG DIGUI-107", "group": "last-30-days", "lat": -47.563867927228884, "lon": 9.325682246309068, "alt_km": 881.0028578111505, "timestamp": "2025-12-22T20:43:44.567121+00:00", "meta": {"OBJECT_NAME": "HULIANWANG DIGUI-107", "OBJECT_ID": "2025-285C", "EPOCH": "2025-12-22T14:14:52.002816", "MEAN_MOTION": 14.03663715, "ECCENTRICITY": 0.00075023, "INCLINATION": 50.0028, "RA_OF_ASC_NODE": 77.0976, "ARG_OF_PERICENTER": 318.372, "MEAN_ANOMALY": 41.6613, "EPHEMERIS_TYPE": 0, "CLASSIFICATION_TYPE": "U", "NORAD_CAT_ID": 66917, "ELEMENT_SET_NO": 999, "REV_AT_EPOCH": 229, "BSTAR": 0.00012107451, "MEAN_MOTION_DOT": 4e-07, "MEAN_MOTION_DDOT": 0}, "tle": {"line1": "1 66917U 25285C   25356.59365744  .00000040  00000+0  12107-3 0  9992", "line2": "2 66917  50.0028  77.0976 0007502 318.3720  41.6613 14.03663715  2290"}}, "geometry": {"type": "Point", "coordinates": [9.325682246309068, -47.563867927228884]}}, {"type": "Feature", "properties": {"norad_id": 66918, "name": "HULIANWANG DIGUI-108", "group": "last-30-days", "lat": -46.40708900799035, "lon": 14.140627895231978, "alt_km": 881.3197932351886, "timestamp": "2025-12-22T20:43:44.567132+00:00", "meta": {"OBJECT_NAME": "HULIANWANG DIGUI-108", "OBJECT_ID": "2025-285D", "EPOCH": "2025-12-22T14:13:51.661920", "MEAN_MOTION": 14.0360268, "ECCENTRICITY": 0.00066538, "INCLINATION": 50.005, "RA_OF_ASC_NODE": 77.0982, "ARG_OF_PERICENTER": 313.0201, "MEAN_ANOMALY": 47.0145, "EPHEMERIS_TYPE": 0, "CLASSIFICATION_TYPE": "U", "NORAD_CAT_ID": 66918, "ELEMENT_SET_NO": 999, "REV_AT_EPOCH": 229, "BSTAR": 0.00011619766, "MEAN_MOTION_DOT": 3.2e-07, "MEAN_MOTION_DDOT": 0}, "tle": {"line1": "1 66918U 25285D   25356.59295905  .00000032  00000+0  11620-3 0  9994", "line2": "2 66918  50.0050  77.0982 0006653 313.0201  47.0145 14.03602680  2299"}}, "geometry": {"type": "Point", "coordinates": [14.140627895231978, -46.40708900799035]}}, {"type": "Feature", "properties": {"norad_id": 66919, "name": "HULIANWANG DIGUI-109", "group": "last-30-days", "lat": -43.007984659385876, "lon": 24.451681176791258, "alt_km": 880.1237449530972, "timestamp": "2025-12-22T20:43:44.567142+00:00", "meta": {"OBJECT_NAME": "HULIANWANG DIGUI-109", "OBJECT_ID": "2025-285E", "EPOCH": "2025-12-22T14:11:35.397024", "MEAN_MOTION": 14.03726891, "ECCENTRICITY": 0.00079042, "INCLINATION": 50.0074, "RA_OF_ASC_NODE": 77.0949, "ARG_OF_PERICENTER": 325.3168, "MEAN_ANOMALY": 34.722, "EPHEMERIS_TYPE": 0, "CLASSIFICATION_TYPE": "U", "NORAD_CAT_ID": 66919, "ELEMENT_SET_NO": 999, "REV_AT_EPOCH": 229, "BSTAR": 0.00012330026, "MEAN_MOTION_DOT": 4.4e-07, "MEAN_MOTION_DDOT": 0}, "tle": {"line1": "1 66919U 25285E   25356.59138191  .00000044  00000+0  12330-3 0  9990", "line2": "2 66919  50.0074  77.0949 0007904 325.3168  34.7220 14.03726891  2295"}}, "geometry": {"type": "Point", "coordinates": [24.451681176791258, -43.007984659385876]}}]}